[{"OBJECT_NAME":"STARLINK-32679","OBJECT_ID":"2025-003W","EPOCH":"2026-03-09T00:21:07.320384","MEAN_MOTION":15.27616229,"ECCENTRICITY":0.00012968,"INCLINATION":43.0015,"RA_OF_ASC_NODE":293.1482,"ARG_OF_PERICENTER":271.2196,"MEAN_ANOMALY":88.8507,"EPHEMERIS_TYPE":0,"CLASSIFICATION_TYPE":"U","NORAD_CAT_ID":62507,"ELEMENT_SET_NO":999,"REV_AT_EPOCH":6656,"BSTAR":0.0013254356,"MEAN_MOTION_DOT":0.00036432,"MEAN_MOTION_DDOT":0},{"OBJECT_NAME":"FLOCK 4G-5","OBJECT_ID":"2025-009BG","EPOCH":"2026-03-09T10:57:11.608704","MEAN_MOTION":15.28679529,"ECCENTRICITY":0.00020946,"INCLINATION":97.4058,"RA_OF_ASC_NODE":151.2478,"ARG_OF_PERICENTER":314.5072,"MEAN_ANOMALY":45.5996,"EPHEMERIS_TYPE":0,"CLASSIFICATION_TYPE":"U","NORAD_CAT_ID":62663,"ELEMENT_SET_NO":999,"REV_AT_EPOCH":6369,"BSTAR":0.00040688068,"MEAN_MOTION_DOT":0.00011278,"MEAN_MOTION_DDOT":0}]
